{
  "norad_id": 57116,
  "name": "STARLINK-6129",
  "history": [
    {
      "epoch": "2026-03-28T21:50:03.280416",
      "apogee_km": 560.3166570694138,
      "perigee_km": 558.0398302064523,
      "latitude_deg": 12.267864424938713,
      "longitude_deg": -21.06302175996825,
      "semi_major_axis_km": 6937.315243637933,
      "eccentricity": 0.0001641,
      "inclination_deg": 43.0038,
      "raan_deg": 170.2943,
      "arg_perigee_deg": 261.727,
      "mean_anomaly_deg": 98.3387,
      "mean_motion_rev_day": 15.02503931
    }
  ]
}