{"fetched_at":"2026-03-29T16:36:15Z","count":15609,"tles":[{"name":"STARLINK-6129","line1":"1 57116U 23090R   26087.90976019  .00005415  00000+0  41597-3 0  9991","line2":"2 57116  43.0038 170.2943 0001641 261.7270  98.3387 15.02503931153302","category":"Starlink"}]}